{"type": "FeatureCollection", "features": [ {"type": "Feature", "properties": {"norad_id": 29906, "name": "FENGYUN 1C DEB", "group": "fengyun-1c-debris", "lat": -63.02038793073415, "lon": 116.76487406081407, "alt_km": 759.2981762848849, "timestamp": "2025-12-21T14:40:48.188726+00:00", "meta": {"OBJECT_NAME": "FENGYUN 1C DEB", "OBJECT_ID": "1999-025HC", "EPOCH": "2025-12-21T06:41:46.970304", "MEAN_MOTION": 14.49769883, "ECCENTRICITY": 0.00365462, "INCLINATION": 98.7064, "RA_OF_ASC_NODE": 98.9033, "ARG_OF_PERICENTER": 124.2089, "MEAN_ANOMALY": 236.2576, "EPHEMERIS_TYPE": 0, "CLASSIFICATION_TYPE": "U", "NORAD_CAT_ID": 29906, "ELEMENT_SET_NO": 999, "REV_AT_EPOCH": 98281, "BSTAR": 0.0015952002, "MEAN_MOTION_DOT": 6.156e-05, "MEAN_MOTION_DDOT": 0}, "tle": {"line1": "1 29906U 99025HC  25355.27901586  .00006156  00000+0  15952-2 0  9990", "line2": "2 29906  98.7064  98.9033 0036546 124.2089 236.2576 14.49769883982812"}}, "geometry": {"type": "Point", "coordinates": [116.76487406081407, -63.02038793073415]}}, {"type": "Feature", "properties": {"norad_id": 29907, "name": "FENGYUN 1C DEB", "group": "fengyun-1c-debris", "lat": -50.359560396433686, "lon": 73.59190206290906, "alt_km": 853.6170570819077, "timestamp": "2025-12-21T14:40:48.188735+00:00", "meta": {"OBJECT_NAME": "FENGYUN 1C DEB", "OBJECT_ID": "1999-025HD", "EPOCH": "2025-12-21T03:09:31.746816", "MEAN_MOTION": 14.11678962, "ECCENTRICITY": 0.00845896, "INCLINATION": 99.1111, "RA_OF_ASC_NODE": 61.9357, "ARG_OF_PERICENTER": 226.126, "MEAN_ANOMALY": 163.4398, "EPHEMERIS_TYPE": 0, "CLASSIFICATION_TYPE": "U", "NORAD_CAT_ID": 29907, "ELEMENT_SET_NO": 999, "REV_AT_EPOCH": 96717, "BSTAR": 0.0013570668, "MEAN_MOTION_DOT": 2.508e-05, "MEAN_MOTION_DDOT": 0}, "tle": {"line1": "1 29907U 99025HD  25355.13161744  .00002508  00000+0  13571-2 0  9992", "line2": "2 29907  99.1111  61.9357 0084589 226.1260 163.4398 14.11678962967174"}}, "geometry": {"type": "Point", "coordinates": [73.59190206290906, -50.359560396433686]}}, {"type": "Feature", "properties": {"norad_id": 29909, "name": "FENGYUN 1C DEB", "group": "fengyun-1c-debris", "lat": -6.218327016999315, "lon": -81.24026505053172, "alt_km": 737.8166576278354, "timestamp": "2025-12-21T14:40:48.188745+00:00", "meta": {"OBJECT_NAME": "FENGYUN 1C DEB", "OBJECT_ID": "1999-025HF", "EPOCH": "2025-12-21T05:42:44.779392", "MEAN_MOTION": 14.55248967, "ECCENTRICITY": 0.00381011, "INCLINATION": 98.6345, "RA_OF_ASC_NODE": 99.3224, "ARG_OF_PERICENTER": 348.3931, "MEAN_ANOMALY": 41.5414, "EPHEMERIS_TYPE": 0, "CLASSIFICATION_TYPE": "U", "NORAD_CAT_ID": 29909, "ELEMENT_SET_NO": 999, "REV_AT_EPOCH": 98529, "BSTAR": 0.0013946308, "MEAN_MOTION_DOT": 6.051e-05, "MEAN_MOTION_DDOT": 0}, "tle": {"line1": "1 29909U 99025HF  25355.23801828  .00006051  00000+0  13946-2 0  9992", "line2": "2 29909  98.6345  99.3224 0038101 348.3931  41.5414 14.55248967985292"}}, "geometry": {"type": "Point", "coordinates": [-81.24026505053172, -6.218327016999315]}}, {"type": "Feature", "properties": {"norad_id": 29911, "name": "FENGYUN 1C DEB", "group": "fengyun-1c-debris", "lat": -71.35839492901425, "lon": -168.47101703551655, "alt_km": 848.2987980634234, "timestamp": "2025-12-21T14:40:48.188755+00:00", "meta": {"OBJECT_NAME": "FENGYUN 1C DEB", "OBJECT_ID": "1999-025HH", "EPOCH": "2025-12-21T01:55:57.200160", "MEAN_MOTION": 14.1887702, "ECCENTRICITY": 0.0027436, "INCLINATION": 98.7147, "RA_OF_ASC_NODE": 38.0508, "ARG_OF_PERICENTER": 127.8915, "MEAN_ANOMALY": 293.7361, "EPHEMERIS_TYPE": 0, "CLASSIFICATION_TYPE": "U", "NORAD_CAT_ID": 29911, "ELEMENT_SET_NO": 999, "REV_AT_EPOCH": 97549, "BSTAR": 0.00051509204, "MEAN_MOTION_DOT": 1.033e-05, "MEAN_MOTION_DDOT": 0}, "tle": {"line1": "1 29911U 99025HH  25355.08052315  .00001033  00000+0  51509-3 0  9990", "line2": "2 29911  98.7147  38.0508 0027436 127.8915 293.7361 14.18877020975492"}}, "geometry": {"type": "Point", "coordinates": [-168.47101703551655, -71.35839492901425]}}, {"type": "Feature", "properties": {"norad_id": 29912, "name": "FENGYUN 1C DEB", "group": "fengyun-1c-debris", "lat": -78.44955405847404, "lon": -135.5399567472167, "alt_km": 744.5807555765732, "timestamp": "2025-12-21T14:40:48.188765+00:00", "meta": {"OBJECT_NAME": "FENGYUN 1C DEB", "OBJECT_ID": "1999-025HJ", "EPOCH": "2025-12-20T05:58:41.998944", "MEAN_MOTION": 14.43076298, "ECCENTRICITY": 0.0043248, "INCLINATION": 98.7395, "RA_OF_ASC_NODE": 91.8872, "ARG_OF_PERICENTER": 197.2415, "MEAN_ANOMALY": 190.0813, "EPHEMERIS_TYPE": 0, "CLASSIFICATION_TYPE": "U", "NORAD_CAT_ID": 29912, "ELEMENT_SET_NO": 999, "REV_AT_EPOCH": 98147, "BSTAR": 0.0014256, "MEAN_MOTION_DOT": 4.791e-05, "MEAN_MOTION_DDOT": 0}, "tle": {"line1": "1 29912U 99025HJ  25354.24909721  .00004791  00000+0  14256-2 0  9991", "line2": "2 29912  98.7395  91.8872 0043248 197.2415 190.0813 14.43076298981476"}}, "geometry": {"type": "Point", "coordinates": [-135.5399567472167, -78.44955405847404]}}, {"type": "Feature", "properties": {"norad_id": 29913, "name": "FENGYUN 1C DEB", "group": "fengyun-1c-debris", "lat": -44.25217703377711, "lon": 2.8866423770415253, "alt_km": 858.6275760118151, "timestamp": "2025-12-21T14:40:48.188775+00:00", "meta": {"OBJECT_NAME": "FENGYUN 1C DEB", "OBJECT_ID": "1999-025HK", "EPOCH": "2025-12-20T12:11:01.056768", "MEAN_MOTION": 14.07391308, "ECCENTRICITY": 0.00618362, "INCLINATION": 98.7877, "RA_OF_ASC_NODE": 353.1456, "ARG_OF_PERICENTER": 249.3013, "MEAN_ANOMALY": 234.6873, "EPHEMERIS_TYPE": 0, "CLASSIFICATION_TYPE": "U", "NORAD_CAT_ID": 29913, "ELEMENT_SET_NO": 999, "REV_AT_EPOCH": 97074, "BSTAR": 0.00024262285, "MEAN_MOTION_DOT": 3.72e-06, "MEAN_MOTION_DDOT": 0}, "tle": {"line1": "1 29913U 99025HK  25354.50765112  .00000372  00000+0  24262-3 0  9995", "line2": "2 29913  98.7877 353.1456 0061836 249.3013 234.6873 14.07391308970741"}}, "geometry": {"type": "Point", "coordinates": [2.8866423770415253, -44.25217703377711]}}, {"type": "Feature", "properties": {"norad_id": 29914, "name": "FENGYUN 1C DEB", "group": "fengyun-1c-debris", "lat": -40.65159687963913, "lon": 31.619325212824464, "alt_km": 907.2338003240329, "timestamp": "2025-12-21T14:40:48.188785+00:00", "meta": {"OBJECT_NAME": "FENGYUN 1C DEB", "OBJECT_ID": "1999-025HL", "EPOCH": "2025-12-21T01:29:14.680608", "MEAN_MOTION": 14.03132699, "ECCENTRICITY": 0.00367594, "INCLINATION": 98.8428, "RA_OF_ASC_NODE": 23.4036, "ARG_OF_PERICENTER": 92.3212, "MEAN_ANOMALY": 331.7193, "EPHEMERIS_TYPE": 0, "CLASSIFICATION_TYPE": "U", "NORAD_CAT_ID": 29914, "ELEMENT_SET_NO": 999, "REV_AT_EPOCH": 96903, "BSTAR": -5.0552515e-05, "MEAN_MOTION_DOT": -1.22e-06, "MEAN_MOTION_DDOT": 0}, "tle": {"line1": "1 29914U 99025HL  25355.06197547 -.00000122  00000+0 -50553-4 0  9997", "line2": "2 29914  98.8428  23.4036 0036759  92.3212 331.7193 14.03132699969035"}}, "geometry": {"type": "Point", "coordinates": [31.619325212824464, -40.65159687963913]}}, {"type": "Feature", "properties": {"norad_id": 29916, "name": "FENGYUN 1C DEB", "group": "fengyun-1c-debris", "lat": -67.64426219638221, "lon": 37.47636993853517, "alt_km": 933.7893924289319, "timestamp": "2025-12-21T14:40:48.188795+00:00", "meta": {"OBJECT_NAME": "FENGYUN 1C DEB", "OBJECT_ID": "1999-025HN", "EPOCH": "2025-12-21T06:51:27.198144", "MEAN_MOTION": 13.56993824, "ECCENTRICITY": 0.02714328, "INCLINATION": 99.1936, "RA_OF_ASC_NODE": 13.9818, "ARG_OF_PERICENTER": 236.6359, "MEAN_ANOMALY": 259.9345, "EPHEMERIS_TYPE": 0, "CLASSIFICATION_TYPE": "U", "NORAD_CAT_ID": 29916, "ELEMENT_SET_NO": 999, "REV_AT_EPOCH": 93568, "BSTAR": 0.00054365941, "MEAN_MOTION_DOT": 4.48e-06, "MEAN_MOTION_DDOT": 0}, "tle": {"line1": "1 29916U 99025HN  25355.28573146  .00000448  00000+0  54366-3 0  9990", "line2": "2 29916  99.1936  13.9818 0271432 236.6359 259.9345 13.56993824935687"}}, "geometry": {"type": "Point", "coordinates": [37.47636993853517, -67.64426219638221]}}, {"type": "Feature", "properties": {"norad_id": 29917, "name": "FENGYUN 1C DEB", "group": "fengyun-1c-debris", "lat": 80.37236917312657, "lon": 149.46906383936297, "alt_km": 830.921113480762, "timestamp": "2025-12-21T14:40:48.188805+00:00", "meta": {"OBJECT_NAME": "FENGYUN 1C DEB", "OBJECT_ID": "1999-025HP", "EPOCH": "2025-12-20T20:48:02.678688", "MEAN_MOTION": 13.70430748, "ECCENTRICITY": 0.02232784, "INCLINATION": 98.8766, "RA_OF_ASC_NODE": 215.8882, "ARG_OF_PERICENTER": 102.7986, "MEAN_ANOMALY": 270.7227, "EPHEMERIS_TYPE": 0, "CLASSIFICATION_TYPE": "U", "NORAD_CAT_ID": 29917, "ELEMENT_SET_NO": 999, "REV_AT_EPOCH": 94242, "BSTAR": 0.0010531809, "MEAN_MOTION_DOT": 1.073e-05, "MEAN_MOTION_DDOT": 0}, "tle": {"line1": "1 29917U 99025HP  25354.86669767  .00001073  00000+0  10532-2 0  9990", "line2": "2 29917  98.8766 215.8882 0223278 102.7986 270.7227 13.70430748942420"}}, "geometry": {"type": "Point", "coordinates": [149.46906383936297, 80.37236917312657]}}, {"type": "Feature", "properties": {"norad_id": 29918, "name": "FENGYUN 1C DEB", "group": "fengyun-1c-debris", "lat": 47.88329918812535, "lon": -91.81913174738769, "alt_km": 783.953483791206, "timestamp": "2025-12-21T14:40:48.188815+00:00", "meta": {"OBJECT_NAME": "FENGYUN 1C DEB", "OBJECT_ID": "1999-025HQ", "EPOCH": "2025-12-21T04:18:44.289792", "MEAN_MOTION": 14.33657956, "ECCENTRICITY": 0.00132743, "INCLINATION": 98.8544, "RA_OF_ASC_NODE": 77.8107, "ARG_OF_PERICENTER": 289.4889, "MEAN_ANOMALY": 133.5383, "EPHEMERIS_TYPE": 0, "CLASSIFICATION_TYPE": "U", "NORAD_CAT_ID": 29918, "ELEMENT_SET_NO": 999, "REV_AT_EPOCH": 97915, "BSTAR": 0.00098374182, "MEAN_MOTION_DOT": 2.685e-05, "MEAN_MOTION_DDOT": 0}, "tle": {"line1": "1 29918U 99025HQ  25355.17967928  .00002685  00000+0  98374-3 0  9997", "line2": "2 29918  98.8544  77.8107 0013274 289.4889 133.5383 14.33657956979150"}}, "geometry": {"type": "Point", "coordinates": [-91.81913174738769, 47.88329918812535]}}]}